{
  "norad_id": 69101,
  "name": "2026-106E",
  "history": [
    {
      "epoch": "2026-05-15T19:53:53.337984Z",
      "apogee_km": 542.0737397166977,
      "perigee_km": 522.8215419657781,
      "latitude_deg": -2.0832957561068167e-05,
      "longitude_deg": 46.4791359222619,
      "height_km": 533.4265943560597,
      "semi_major_axis_km": 6910.584640841237,
      "eccentricity": 0.00139295,
      "inclination_deg": 97.5067,
      "raan_deg": 218.5063,
      "arg_perigee_deg": 282.6221,
      "mean_anomaly_deg": 77.3451,
      "mean_motion_rev_day": 15.11230034
    }
  ]
}